[
    {
        "Altitude(m)": 559159.4080058826,
        "Argument of Periapsis(deg)": 0.013245982221427002,
        "Eccentricity": 0.0,
        "Inclination(deg)": 53.0,
        "Latitude(deg)": 49.9152770621862,
        "Longitude(deg)": 111.35393765508367,
        "Mean Anomaly(deg)": 72.91048573515516,
        "RAAN(deg)": 149.98028673705605,
        "Satellite Name": "Starlink Shell 1 663",
        "Satellite Number": 663,
        "Semi-Major Axis(m)": 6931778.249405717,
        "Time(s)": 380
    },
    {
        "Altitude(m)": 559210.9002950117,
        "Argument of Periapsis(deg)": 0.013594560700938237,
        "Eccentricity": 0.0,
        "Inclination(deg)": 53.0,
        "Latitude(deg)": 50.13971891400758,
        "Longitude(deg)": 112.22143083477143,
        "Mean Anomaly(deg)": 73.53731693871188,
        "RAAN(deg)": 149.97976796697859,
        "Satellite Name": "Starlink Shell 1 663",
        "Satellite Number": 663,
        "Semi-Major Axis(m)": 6931778.249405717,
        "Time(s)": 390
    },
    {
        "Altitude(m)": 559260.7387560038,
        "Argument of Periapsis(deg)": 0.013943139180449475,
        "Eccentricity": 0.0,
        "Inclination(deg)": 53.0,
        "Latitude(deg)": 50.35697793873501,
        "Longitude(deg)": 113.09732289550523,
        "Mean Anomaly(deg)": 74.16414814226862,
        "RAAN(deg)": 149.9792491969011,
        "Satellite Name": "Starlink Shell 1 663",
        "Satellite Number": 663,
        "Semi-Major Axis(m)": 6931778.249405717,
        "Time(s)": 400
    },
    {
        "Altitude(m)": 559308.8931471189,
        "Argument of Periapsis(deg)": 0.014291717659960712,
        "Eccentricity": 0.0,
        "Inclination(deg)": 53.0,
        "Latitude(deg)": 50.56693364829235,
        "Longitude(deg)": 113.98147655387626,
        "Mean Anomaly(deg)": 74.7909793458253,
        "RAAN(deg)": 149.97873042682363,
        "Satellite Name": "Starlink Shell 1 663",
        "Satellite Number": 663,
        "Semi-Major Axis(m)": 6931778.249405717,
        "Time(s)": 410
    },
    {
        "Altitude(m)": 559355.3342793913,
        "Argument of Periapsis(deg)": 0.014640296139471948,
        "Eccentricity": 0.0,
        "Inclination(deg)": 53.0,
        "Latitude(deg)": 50.76946709602721,
        "Longitude(deg)": 114.87373826709512,
        "Mean Anomaly(deg)": 75.41781054938203,
        "RAAN(deg)": 149.97821165674614,
        "Satellite Name": "Starlink Shell 1 663",
        "Satellite Number": 663,
        "Semi-Major Axis(m)": 6931778.249405717,
        "Time(s)": 420
    },
    {
        "Altitude(m)": 559400.0340309598,
        "Argument of Periapsis(deg)": 0.014988874618983185,
        "Eccentricity": 0.0,
        "Inclination(deg)": 53.0,
        "Latitude(deg)": 50.964461140421605,
        "Longitude(deg)": 115.773938476311,
        "Mean Anomaly(deg)": 76.04464175293874,
        "RAAN(deg)": 149.97769288666865,
        "Satellite Name": "Starlink Shell 1 663",
        "Satellite Number": 663,
        "Semi-Major Axis(m)": 6931778.249405717,
        "Time(s)": 430
    },
    {
        "Altitude(m)": 559442.9653608482,
        "Argument of Periapsis(deg)": 0.015337453098494424,
        "Eccentricity": 0.0,
        "Inclination(deg)": 53.0,
        "Latitude(deg)": 51.15180071569308,
        "Longitude(deg)": 116.68189190677234,
        "Mean Anomaly(deg)": 76.67147295649545,
        "RAAN(deg)": 149.97717411659121,
        "Satellite Name": "Starlink Shell 1 663",
        "Satellite Number": 663,
        "Semi-Major Axis(m)": 6931778.249405717,
        "Time(s)": 440
    },
    {
        "Altitude(m)": 559484.1023222134,
        "Argument of Periapsis(deg)": 0.01568603157800566,
        "Eccentricity": 0.0,
        "Inclination(deg)": 53.0,
        "Latitude(deg)": 51.331373108235475,
        "Longitude(deg)": 117.59739641696119,
        "Mean Anomaly(deg)": 77.2983041600522,
        "RAAN(deg)": 149.97665534651375,
        "Satellite Name": "Starlink Shell 1 663",
        "Satellite Number": 663,
        "Semi-Major Axis(m)": 6931778.249405717,
        "Time(s)": 450
    },
    {
        "Altitude(m)": 559523.4200750478,
        "Argument of Periapsis(deg)": 0.0160346100575169,
        "Eccentricity": 0.0,
        "Inclination(deg)": 53.0,
        "Latitude(deg)": 51.503068237727135,
        "Longitude(deg)": 118.52023342723832,
        "Mean Anomaly(deg)": 77.92513536360886,
        "RAAN(deg)": 149.97613657643626,
        "Satellite Name": "Starlink Shell 1 663",
        "Satellite Number": 663,
        "Semi-Major Axis(m)": 6931778.249405717,
        "Time(s)": 460
    },
    {
        "Altitude(m)": 559560.8948983584,
        "Argument of Periapsis(deg)": 0.016383188537028134,
        "Eccentricity": 0.0,
        "Inclination(deg)": 53.0,
        "Latitude(deg)": 51.666778941624386,
        "Longitude(deg)": 119.45016841961365,
        "Mean Anomaly(deg)": 78.55196656716564,
        "RAAN(deg)": 149.97561780635877,
        "Satellite Name": "Starlink Shell 1 663",
        "Satellite Number": 663,
        "Semi-Major Axis(m)": 6931778.249405717,
        "Time(s)": 470
    },
    {
        "Altitude(m)": 559596.5042017455,
        "Argument of Periapsis(deg)": 0.01673176701653937,
        "Eccentricity": 0.0,
        "Inclination(deg)": 53.0,
        "Latitude(deg)": 51.82240126164828,
        "Longitude(deg)": 120.38694999986961,
        "Mean Anomaly(deg)": 79.17879777072233,
        "RAAN(deg)": 149.9750990362813,
        "Satellite Name": "Starlink Shell 1 663",
        "Satellite Number": 663,
        "Semi-Major Axis(m)": 6931778.249405717,
        "Time(s)": 480
    },
    {
        "Altitude(m)": 559630.2265364527,
        "Argument of Periapsis(deg)": 0.017080345496050607,
        "Eccentricity": 0.0,
        "Inclination(deg)": 53.0,
        "Latitude(deg)": 51.96983473077071,
        "Longitude(deg)": 121.3303105514396,
        "Mean Anomaly(deg)": 79.80562897427907,
        "RAAN(deg)": 149.97458026620382,
        "Satellite Name": "Starlink Shell 1 663",
        "Satellite Number": 663,
        "Semi-Major Axis(m)": 6931778.249405717,
        "Time(s)": 490
    },
    {
        "Altitude(m)": 559662.0416058607,
        "Argument of Periapsis(deg)": 0.017428923975561842,
        "Eccentricity": 0.0,
        "Inclination(deg)": 53.0,
        "Latitude(deg)": 52.10898265911648,
        "Longitude(deg)": 122.27996697126093,
        "Mean Anomaly(deg)": 80.43246017783575,
        "RAAN(deg)": 149.97406149612635,
        "Satellite Name": "Starlink Shell 1 663",
        "Satellite Number": 663,
        "Semi-Major Axis(m)": 6931778.249405717,
        "Time(s)": 500
    },
    {
        "Altitude(m)": 559691.930275388,
        "Argument of Periapsis(deg)": 0.01777750245507308,
        "Eccentricity": 0.0,
        "Inclination(deg)": 53.0,
        "Latitude(deg)": 52.239752417119966,
        "Longitude(deg)": 123.23561997720645,
        "Mean Anomaly(deg)": 81.05929138139247,
        "RAAN(deg)": 149.9735427260489,
        "Satellite Name": "Starlink Shell 1 663",
        "Satellite Number": 663,
        "Semi-Major Axis(m)": 6931778.249405717,
        "Time(s)": 510
    },
    {
        "Altitude(m)": 559719.8745818416,
        "Argument of Periapsis(deg)": 0.018126080934584315,
        "Eccentricity": 0.0,
        "Inclination(deg)": 53.0,
        "Latitude(deg)": 52.36205571419617,
        "Longitude(deg)": 124.19695501453472,
        "Mean Anomaly(deg)": 81.68612258494916,
        "RAAN(deg)": 149.97302395597143,
        "Satellite Name": "Starlink Shell 1 663",
        "Satellite Number": 663,
        "Semi-Major Axis(m)": 6931778.249405717,
        "Time(s)": 520
    },
    {
        "Altitude(m)": 559745.857742185,
        "Argument of Periapsis(deg)": 0.018474659414095554,
        "Eccentricity": 0.0,
        "Inclination(deg)": 53.0,
        "Latitude(deg)": 52.47580887121316,
        "Longitude(deg)": 125.16364325003323,
        "Mean Anomaly(deg)": 82.31295378850592,
        "RAAN(deg)": 149.97250518589394,
        "Satellite Name": "Starlink Shell 1 663",
        "Satellite Number": 663,
        "Semi-Major Axis(m)": 6931778.249405717,
        "Time(s)": 530
    },
    {
        "Altitude(m)": 559769.8641617103,
        "Argument of Periapsis(deg)": 0.018823237893606792,
        "Eccentricity": 0.0,
        "Inclination(deg)": 53.0,
        "Latitude(deg)": 52.5809330847923,
        "Longitude(deg)": 126.13534113977288,
        "Mean Anomaly(deg)": 82.93978499206261,
        "RAAN(deg)": 149.97198641581647,
        "Satellite Name": "Starlink Shell 1 663",
        "Satellite Number": 663,
        "Semi-Major Axis(m)": 6931778.249405717,
        "Time(s)": 540
    },
    {
        "Altitude(m)": 559791.8794416664,
        "Argument of Periapsis(deg)": 0.019171816373118027,
        "Eccentricity": 0.0,
        "Inclination(deg)": 53.0,
        "Latitude(deg)": 52.67735468184474,
        "Longitude(deg)": 127.11169159745266,
        "Mean Anomaly(deg)": 83.56661619561929,
        "RAAN(deg)": 149.97146764573898,
        "Satellite Name": "Starlink Shell 1 663",
        "Satellite Number": 663,
        "Semi-Major Axis(m)": 6931778.249405717,
        "Time(s)": 550
    },
    {
        "Altitude(m)": 559811.8903862574,
        "Argument of Periapsis(deg)": 0.019520394852629266,
        "Eccentricity": 0.0,
        "Inclination(deg)": 53.0,
        "Latitude(deg)": 52.76500536234863,
        "Longitude(deg)": 128.09232524736234,
        "Mean Anomaly(deg)": 84.19344739917608,
        "RAAN(deg)": 149.97094887566152,
        "Satellite Name": "Starlink Shell 1 663",
        "Satellite Number": 663,
        "Semi-Major Axis(m)": 6931778.249405717,
        "Time(s)": 560
    }
]